#cP2018 10 16  0  0  0.00000000      96 TRACK IGb14 FIT GRGS
## 2023 172800.00000000   900.00000000 58407 0.0000000000000
+   72   E01E02E03E04E05E07E08E09E11E12E14E18E19E21E24E25E26
+        E27E30E31R01R02R03R04R05R07R08R09R10R11R13R14R15R16
+        R17R18R19R20R21R22R23R24G01G02G03G06G07G08G09G10G11
+        G12G13G14G15G16G17G19G20G21G22G23G24G25G26G27G28G29
+        G30G31G32G18  0  0  0  0  0  0  0  0  0  0  0  0  0
++         4  5  6  7  5  5  6  5  5  4  5  5  5  5  4  4  6
++         4  4  5  6  5  5  6  6  6  6  5  5  6  6  6  5  6
++         6  5  5  6  5  4  5  6  3  4  4  4  4  5  5  4  4
++         4  6  5  4  4  5  5  4  4  4  5  4  5  4  5  4  4
++         4  4  4  4  0  0  0  0  0  0  0  0  0  0  0  0  0
%c M  cc GPS ccc cccc cccc cccc cccc ccccc ccccc ccccc ccccc
%c cc cc ccc ccc cccc cccc cccc cccc ccccc ccccc ccccc ccccc
%f  0.0000000  0.000000000  0.00000000000  0.000000000000000
%f  0.0000000  0.000000000  0.00000000000  0.000000000000000
%i    0    0    0    0      0      0      0      0         0
%i    0    0    0    0      0      0      0      0         0
/* CNES/CLS/GRGS - TOULOUSE,FRANCE - Contact : igs-ac@cls.fr
/* PCV:IGS14_2022 OL/AL:FES2012  NONE     NN ORB:CoN CLK:CoN
/* CCCCCCCCCCCCCCCCCCCCCCCCCCCCCCCCCCCCCCCCCCCCCCCCCCCCCCCCC
/* CCCCCCCCCCCCCCCCCCCCCCCCCCCCCCCCCCCCCCCCCCCCCCCCCCCCCCCCC
*  2018 10 16 12  0  0.00000000
PE01  10905.060157 -23533.969124 -14246.157712   -457.256885
PE02 -10896.392293  23560.774766  14231.729051     31.399346
PE03 -20772.843101  18371.824661  10370.458140    -88.850174
PE04   1890.364920 -18890.157174 -22708.567968   -138.825394
PE05 -27575.040955   7079.323475  -8110.669876    176.030039
PE07  18222.046805   8322.391072  21792.430410    -57.506363
PE08  -1746.063039  18779.423709  22817.241098   6481.936339
PE09 -18247.568607  -8033.486143 -21880.065707   6646.231211
PE11 -23962.863269 -17261.168479   1942.712514   5696.668282
PE12  -8722.280350 -20936.794946  19015.929030   5284.351566
PE14 -26839.062197   2640.891117  -3135.904699   6503.896160
PE18  27221.040211   8327.139080  -9620.494819   5828.625328
PE19  22078.698922 -17703.290206  -8681.887495    -11.373641
PE21  16296.501256  -3432.227362 -24463.784658   -499.752749
PE24 -12166.104996 -17790.402417  20292.711009   6438.816457
PE25 -16306.260704   3419.633701  24480.177924   2011.710856
PE26  24807.831658   3691.627957  15708.155463   5358.623704
PE27  11928.710305  18357.264305 -19913.276964    610.000174
PE30    822.881190  29270.638580  -4321.175689   5428.553127
PE31   -597.423633 -29353.927894   3730.271280   1008.431716
PR01 -14331.131245  17962.544051  11087.019105     33.542889
PR02   3131.322735  11130.288938  22764.610657    334.770422
PR03  17181.103942  -1734.291307  18826.021605    146.114289
PR04  21107.248093 -13910.783525   3487.724355    280.131713
PR05  13047.627714 -17620.666348 -13048.657831     13.235664
PR07 -17386.966877   2070.072722 -18504.238956    -49.439441
PR08 -21201.857518  13557.153821  -4102.130620     20.911271
PR09  -7053.407854 -22752.406975   9049.100331     33.738707
PR10 -10820.815863  -9486.687077  21026.039926     33.618741
PR11  -9110.374657  10508.623107  21416.596616    -44.071307
PR13   7046.000466  23026.314693  -8439.838104    -15.741936
PR14  11102.813276   9562.337971 -20864.651504     32.039013
PR15   9945.708751  -5709.315615 -22779.321420    -17.762135
PR16   1748.597772 -23364.365411 -10231.023321    104.073059
PR17  23567.767374   9651.466745    937.696461    172.677789
PR18  19446.967081    163.759609  16546.037528     26.163800
PR19   4652.364865  -9390.303228  23253.161789    -60.690301
PR20 -14147.482872 -14224.229097  15733.888282   -355.788751
PR21 -23668.173331  -9459.923501  -1396.254322     -9.182460
PR22 -17830.338501   1212.552236 -18144.889166    -64.968340
PR23     53.110179  11305.182745 -22874.654931    184.710960
PR24  15433.418176  13970.215315 -14771.696914   -172.622848
PG01  19020.046064   8235.954089  16610.340888   -101.191254
PG02 -14760.038243 -22158.544681   2279.848701    -31.583307
PG03  17165.829703  -3349.982847  19932.370269    149.556104
PG06  -3087.436527 -22127.790107  14379.037919    348.794423
PG07  13261.256274  -7433.486271 -21546.864861    105.773472
PG08  22694.066636   6608.036974 -12226.953647   -118.802953
PG09  24346.381399  -7401.680168  -7668.699948    500.036640
PG10 -10637.228349  24184.122655   1544.043749    174.103621
PG11  23960.121414   7872.057471   7430.446130   -709.363168
PG12 -15174.808889  -2193.848026  21471.904975    299.367595
PG13 -16208.729396 -12579.398657 -16990.753533    -86.935344
PG14    412.122420  15351.690105  21974.666125    -96.667807
PG15 -25090.201284  -2966.381907  -9049.363721   -342.899514
PG16   4169.129796  17814.911048 -19251.258823      3.935270
PG17  10448.161476 -13798.925937  20507.432697    -43.465318
PG19   -364.655391 -14639.892981  21860.568139   -393.020625
PG20 -14290.551998  20610.758315  -8690.899000    517.364486
PG21  -9828.120826  11937.613539 -20806.758917   -320.379313
PG22  15252.912102   5166.040926  21353.083192   -548.295407
PG23  26740.023787  -1146.135360   1456.894497   -208.570101
PG24 -20224.597691 -11629.195988  12849.749497    -56.808536
PG25 -17714.090715  11604.048706  15697.591689   -662.559575
PG26  -2191.569853  23812.032677 -11407.501323     10.986481
PG27  13778.528329  12121.275970 -19382.189656     -5.860789
PG28  13484.253170 -22918.003270    563.917954    749.997744
PG29 -25175.855623   4757.348749  -7028.099290    355.869493
PG30   5345.273262 -17766.341323 -18923.779109      9.391038
PG31   4257.319914  22941.444268  12304.462462     86.367361
PG32  -8562.401217  14926.760394  20247.386374   -391.057427
PG18  19317.589850  15977.896556   8521.376900     68.833914
EOF
